DMSP 5D-3 F16 (USA 172) 
1 28054U 03048A   26185.58692228  .00000029  00000+0  38531-4 0  9992
2 28054  98.9886 209.5299 0008208  97.0016  71.7171 14.14484630171947
METEOSAT-9 (MSG-2)      
1 28912U 05049B   26184.73229576  .00000132  00000+0  00000+0 0  9996
2 28912   9.3963  54.0026 0002460   0.5032 176.6249  1.00267681  7163
DMSP 5D-3 F17 (USA 191) 
1 29522U 06050A   26185.49394860  .00000080  00000+0  63472-4 0  9999
2 29522  98.7381 191.7100 0010372  13.4111 346.7336 14.14995517 14879
FENGYUN 3A              
1 32958U 08026A   26185.59771301  .00000132  00000+0  82908-4 0  9994
2 32958  98.6885 126.1054 0009878  79.0567 281.1721 14.19575051937872
GOES 14                 
1 35491U 09033A   26185.53347586 -.00000331  00000+0  00000+0 0  9996
2 35491   1.7317  82.8427 0002145  29.4791 133.8894  1.00104269  6766
DMSP 5D-3 F18 (USA 210) 
1 35951U 09057A   26185.39572587  .00000287  00000+0  17166-3 0  9992
2 35951  98.9047 166.1280 0010575 196.4615 163.6216 14.14906679862026
EWS-G2 (GOES 15)        
1 36411U 10008A   26185.51996176  .00000033  00000+0  00000+0 0  9994
2 36411   1.3223  82.6125 0005374  48.1809  42.3723  1.00268334 59812
COMS 1                  
1 36744U 10032A   26185.29452096 -.00000123  00000+0  00000+0 0  9994
2 36744   4.8462  75.1543 0011684  14.0017 304.5143  0.99169316 51255
FENGYUN 3B              
1 37214U 10059A   26185.64885142  .00000514  00000+0  28885-3 0  9995
2 37214  98.9605 231.7369 0022807 135.2620  22.7232 14.14846629809892
SUOMI NPP               
1 37849U 11061A   26185.53912346  .00000115  00000+0  75388-4 0  9996
2 37849  98.7955 126.2968 0000622 296.9785  63.1328 14.19521194760908
METEOSAT-10 (MSG-3)     
1 38552U 12035B   26185.00837231  .00000003  00000+0  00000+0 0  9991
2 38552   4.7088  60.9370 0001504  16.7580 207.4561  1.00269590 51029
METOP-B                 
1 38771U 12049A   26185.57618465  .00000154  00000+0  90357-4 0  9993
2 38771  98.6495 236.7278 0001221 318.5789  41.5296 14.21444462715733
INSAT-3D                
1 39216U 13038B   26183.85162303 -.00000329  00000+0  00000+0 0  9997
2 39216   1.9642  82.3574 0001056  15.1644 259.4386  1.00268722 47238
FENGYUN 3C              
1 39260U 13052A   26185.64148838  .00000103  00000+0  73452-4 0  9993
2 39260  98.4997 158.7156 0014200 337.8728  22.1832 14.15759165661034
METEOR-M 2              
1 40069U 14037A   26185.60230022 -.00000050  00000+0 -34396-5 0  9997
2 40069  98.5126 160.7246 0005829 359.0114   1.1052 14.21466161621791
HIMAWARI-8              
1 40267U 14060A   26185.60656330 -.00000263  00000+0  00000+0 0  9991
2 40267   0.0184  25.2039 0000985  89.0750 167.3757  1.00271032 42936
FENGYUN 2G              
1 40367U 14090A   26185.59834205 -.00000290  00000+0  00000+0 0  9992
2 40367   5.6803  72.6093 0003620 150.5561  14.3699  1.00265779 42178
METEOSAT-11 (MSG-4)     
1 40732U 15034A   26185.58052867  .00000073  00000+0  00000+0 0  9990
2 40732   3.2440  71.0017 0002248 349.7592  80.1171  1.00268534  7398
ELEKTRO-L 2             
1 41105U 15074A   26184.93418214 -.00000108  00000+0  00000+0 0  9999
2 41105   6.7340  70.3182 0000631 256.9138 276.4845  1.00273831 38673
SENTINEL-3A             
1 41335U 16011A   26185.60878007  .00000164  00000+0  85832-4 0  9993
2 41335  98.6242 252.7417 0001426  93.8118 266.3226 14.26737858540546
INSAT-3DR               
1 41752U 16054A   26183.45463633 -.00000066  00000+0  00000+0 0  9990
2 41752   0.1421  85.9447 0010094 186.2693 245.9301  1.00272241 35972
HIMAWARI-9              
1 41836U 16064A   26183.69547150 -.00000265  00000+0  00000+0 0  9998
2 41836   0.0302 267.9360 0001438 225.4185 178.4790  1.00268231 35361
GOES 16                 
1 41866U 16071A   26185.55790856 -.00000079  00000+0  00000+0 0  9992
2 41866   0.3808  85.6839 0000534  47.1691 245.8762  1.00271917 35274
FENGYUN 4A              
1 41882U 16077A   26185.53182918 -.00000345  00000+0  00000+0 0  9994
2 41882   2.3641  80.0977 0007967 157.9174 359.7446  1.00274952 35102
CYGFM05                 
1 41884U 16078A   26185.23436106  .00032089  00000+0  42187-3 0  9990
2 41884  34.9560 147.6429 0007904 298.1840  61.8086 15.57413015531414
CYGFM04                 
1 41885U 16078B   26185.15087955  .00039831  00000+0  43073-3 0  9993
2 41885  34.9322 115.0162 0006299 332.9958  27.0440 15.62487531531651
CYGFM02                 
1 41886U 16078C   26185.11825179  .00046243  00000+0  44063-3 0  9993
2 41886  34.9400 109.2615 0007128 336.0808  23.9587 15.65646594531823
CYGFM01                 
1 41887U 16078D   26185.59992590  .00046265  00000+0  59021-3 0  9992
2 41887  34.9394 146.1326 0007827 295.2783  64.7131 15.58151423531427
CYGFM08                 
1 41888U 16078E   26185.52894363  .00052518  00000+0  60136-3 0  9992
2 41888  34.9427 125.7165 0008295 324.7619  35.2558 15.60950280531680
CYGFM07                 
1 41890U 16078G   26185.48699059  .00051118  00000+0  58345-3 0  9999
2 41890  34.9443 114.3232 0006605 336.6376  23.4049 15.61054182531709
CYGFM03                 
1 41891U 16078H   26185.13833359  .00038475  00000+0  44079-3 0  9995
2 41891  34.9398 118.5790 0006662 320.6763  39.3478 15.61006681531624
